{"type": "FeatureCollection", "features": [ {"type": "Feature", "properties": {"norad_id": 35480, "name": "IRIDIUM 33 DEB", "group": "iridium-33-debris", "lat": -68.52123945988204, "lon": 11.057113188090181, "alt_km": 742.2982994132217, "timestamp": "2025-12-23T05:02:12.415447+00:00", "meta": {"OBJECT_NAME": "IRIDIUM 33 DEB", "OBJECT_ID": "1997-051QA", "EPOCH": "2025-12-15T08:30:57.118464", "MEAN_MOTION": 14.49774703, "ECCENTRICITY": 0.00160032, "INCLINATION": 86.3571, "RA_OF_ASC_NODE": 23.7786, "ARG_OF_PERICENTER": 97.0457, "MEAN_ANOMALY": 263.2568, "EPHEMERIS_TYPE": 0, "CLASSIFICATION_TYPE": "U", "NORAD_CAT_ID": 35480, "ELEMENT_SET_NO": 999, "REV_AT_EPOCH": 87069, "BSTAR": 0.00045738518, "MEAN_MOTION_DOT": 1.785e-05, "MEAN_MOTION_DDOT": 0}, "tle": {"line1": "1 35480U 97051QA  25349.35482776  .00001785  00000+0  45739-3 0  9998", "line2": "2 35480  86.3571  23.7786 0016003  97.0457 263.2568 14.49774703870695"}}, "geometry": {"type": "Point", "coordinates": [11.057113188090181, -68.52123945988204]}}, {"type": "Feature", "properties": {"norad_id": 35484, "name": "IRIDIUM 33 DEB", "group": "iridium-33-debris", "lat": 32.793051870848984, "lon": 165.49399395908574, "alt_km": 558.1200522530944, "timestamp": "2025-12-23T05:02:12.415457+00:00", "meta": {"OBJECT_NAME": "IRIDIUM 33 DEB", "OBJECT_ID": "1997-051QE", "EPOCH": "2025-12-20T05:53:50.544096", "MEAN_MOTION": 14.99070362, "ECCENTRICITY": 0.0024356, "INCLINATION": 86.3597, "RA_OF_ASC_NODE": 349.2325, "ARG_OF_PERICENTER": 101.461, "MEAN_ANOMALY": 258.9359, "EPHEMERIS_TYPE": 0, "CLASSIFICATION_TYPE": "U", "NORAD_CAT_ID": 35484, "ELEMENT_SET_NO": 999, "REV_AT_EPOCH": 62128, "BSTAR": 0.0017571615, "MEAN_MOTION_DOT": 0.00021521, "MEAN_MOTION_DDOT": 0}, "tle": {"line1": "1 35484U 97051QE  25354.24572389  .00021521  00000+0  17572-2 0  9999", "line2": "2 35484  86.3597 349.2325 0024356 101.4610 258.9359 14.99070362621286"}}, "geometry": {"type": "Point", "coordinates": [165.49399395908574, 32.793051870848984]}}, {"type": "Feature", "properties": {"norad_id": 35488, "name": "IRIDIUM 33 DEB", "group": "iridium-33-debris", "lat": 22.74991712002012, "lon": -62.405613355155104, "alt_km": 599.4107155885413, "timestamp": "2025-12-23T05:02:12.415467+00:00", "meta": {"OBJECT_NAME": "IRIDIUM 33 DEB", "OBJECT_ID": "1997-051QJ", "EPOCH": "2025-12-22T19:13:13.565280", "MEAN_MOTION": 14.8329676, "ECCENTRICITY": 0.00284188, "INCLINATION": 86.3248, "RA_OF_ASC_NODE": 296.2385, "ARG_OF_PERICENTER": 9.7501, "MEAN_ANOMALY": 350.4267, "EPHEMERIS_TYPE": 0, "CLASSIFICATION_TYPE": "U", "NORAD_CAT_ID": 35488, "ELEMENT_SET_NO": 999, "REV_AT_EPOCH": 88415, "BSTAR": 0.0016428334, "MEAN_MOTION_DOT": 0.00013576, "MEAN_MOTION_DDOT": 0}, "tle": {"line1": "1 35488U 97051QJ  25356.80085145  .00013576  00000+0  16428-2 0  9996", "line2": "2 35488  86.3248 296.2385 0028418   9.7501 350.4267 14.83296760884150"}}, "geometry": {"type": "Point", "coordinates": [-62.405613355155104, 22.74991712002012]}}, {"type": "Feature", "properties": {"norad_id": 35616, "name": "IRIDIUM 33 DEB", "group": "iridium-33-debris", "lat": 44.67106171386373, "lon": 157.37124784988538, "alt_km": 611.2342768788285, "timestamp": "2025-12-23T05:02:12.415477+00:00", "meta": {"OBJECT_NAME": "IRIDIUM 33 DEB", "OBJECT_ID": "1997-051QN", "EPOCH": "2025-12-21T16:46:45.287328", "MEAN_MOTION": 14.82015021, "ECCENTRICITY": 0.00114093, "INCLINATION": 86.3545, "RA_OF_ASC_NODE": 341.6744, "ARG_OF_PERICENTER": 134.0095, "MEAN_ANOMALY": 226.2069, "EPHEMERIS_TYPE": 0, "CLASSIFICATION_TYPE": "U", "NORAD_CAT_ID": 35616, "ELEMENT_SET_NO": 999, "REV_AT_EPOCH": 87707, "BSTAR": 0.0013754653, "MEAN_MOTION_DOT": 0.00010957, "MEAN_MOTION_DDOT": 0}, "tle": {"line1": "1 35616U 97051QN  25355.69913527  .00010957  00000+0  13755-2 0  9999", "line2": "2 35616  86.3545 341.6744 0011409 134.0095 226.2069 14.82015021877070"}}, "geometry": {"type": "Point", "coordinates": [157.37124784988538, 44.67106171386373]}}, {"type": "Feature", "properties": {"norad_id": 35618, "name": "IRIDIUM 33 DEB", "group": "iridium-33-debris", "lat": -45.79498079738236, "lon": 172.6996616258992, "alt_km": 735.103716178236, "timestamp": "2025-12-23T05:02:12.415487+00:00", "meta": {"OBJECT_NAME": "IRIDIUM 33 DEB", "OBJECT_ID": "1997-051QQ", "EPOCH": "2025-12-21T17:16:24.492288", "MEAN_MOTION": 14.52331103, "ECCENTRICITY": 0.00284149, "INCLINATION": 86.341, "RA_OF_ASC_NODE": 349.5786, "ARG_OF_PERICENTER": 351.4344, "MEAN_ANOMALY": 8.6373, "EPHEMERIS_TYPE": 0, "CLASSIFICATION_TYPE": "U", "NORAD_CAT_ID": 35618, "ELEMENT_SET_NO": 999, "REV_AT_EPOCH": 65524, "BSTAR": 0.00039049847, "MEAN_MOTION_DOT": 1.617e-05, "MEAN_MOTION_DDOT": 0}, "tle": {"line1": "1 35618U 97051QQ  25355.71972792  .00001617  00000+0  39050-3 0  9993", "line2": "2 35618  86.3410 349.5786 0028414 351.4344   8.6373 14.52331103655244"}}, "geometry": {"type": "Point", "coordinates": [172.6996616258992, -45.79498079738236]}}, {"type": "Feature", "properties": {"norad_id": 35620, "name": "IRIDIUM 33 DEB", "group": "iridium-33-debris", "lat": 37.93329581826621, "lon": -144.14079728396058, "alt_km": 859.66769180543, "timestamp": "2025-12-23T05:02:12.415498+00:00", "meta": {"OBJECT_NAME": "IRIDIUM 33 DEB", "OBJECT_ID": "1997-051QS", "EPOCH": "2025-12-22T20:30:28.552032", "MEAN_MOTION": 14.38347661, "ECCENTRICITY": 0.01386054, "INCLINATION": 86.3896, "RA_OF_ASC_NODE": 213.1884, "ARG_OF_PERICENTER": 225.2631, "MEAN_ANOMALY": 133.722, "EPHEMERIS_TYPE": 0, "CLASSIFICATION_TYPE": "U", "NORAD_CAT_ID": 35620, "ELEMENT_SET_NO": 999, "REV_AT_EPOCH": 60111, "BSTAR": 0.0048145094, "MEAN_MOTION_DOT": 0.00016436, "MEAN_MOTION_DDOT": 0}, "tle": {"line1": "1 35620U 97051QS  25356.85449713  .00016436  00000+0  48145-2 0  9993", "line2": "2 35620  86.3896 213.1884 0138605 225.2631 133.7220 14.38347661601119"}}, "geometry": {"type": "Point", "coordinates": [-144.14079728396058, 37.93329581826621]}}, {"type": "Feature", "properties": {"norad_id": 35622, "name": "IRIDIUM 33 DEB", "group": "iridium-33-debris", "lat": 52.81610843162869, "lon": 73.41505782570533, "alt_km": 546.7939609438035, "timestamp": "2025-12-23T05:02:12.415508+00:00", "meta": {"OBJECT_NAME": "IRIDIUM 33 DEB", "OBJECT_ID": "1997-051QU", "EPOCH": "2025-12-22T17:26:20.934816", "MEAN_MOTION": 15.05728881, "ECCENTRICITY": 0.00037836, "INCLINATION": 86.2011, "RA_OF_ASC_NODE": 258.6786, "ARG_OF_PERICENTER": 291.3821, "MEAN_ANOMALY": 97.8635, "EPHEMERIS_TYPE": 0, "CLASSIFICATION_TYPE": "U", "NORAD_CAT_ID": 35622, "ELEMENT_SET_NO": 999, "REV_AT_EPOCH": 87510, "BSTAR": 0.0037158525, "MEAN_MOTION_DOT": 0.00054114, "MEAN_MOTION_DDOT": 0}, "tle": {"line1": "1 35622U 97051QU  25356.72663119  .00054114  00000+0  37159-2 0  9997", "line2": "2 35622  86.2011 258.6786 0003783 291.3821  97.8635 15.05728881875101"}}, "geometry": {"type": "Point", "coordinates": [73.41505782570533, 52.81610843162869]}}, {"type": "Feature", "properties": {"norad_id": 35628, "name": "IRIDIUM 33 DEB", "group": "iridium-33-debris", "lat": -19.524825367822924, "lon": 3.110452249880432, "alt_km": 668.1688675463356, "timestamp": "2025-12-23T05:02:12.415518+00:00", "meta": {"OBJECT_NAME": "IRIDIUM 33 DEB", "OBJECT_ID": "1997-051RA", "EPOCH": "2025-12-20T06:45:55.793664", "MEAN_MOTION": 14.67680924, "ECCENTRICITY": 0.00096368, "INCLINATION": 86.3562, "RA_OF_ASC_NODE": 5.7112, "ARG_OF_PERICENTER": 314.2717, "MEAN_ANOMALY": 45.7705, "EPHEMERIS_TYPE": 0, "CLASSIFICATION_TYPE": "U", "NORAD_CAT_ID": 35628, "ELEMENT_SET_NO": 999, "REV_AT_EPOCH": 86557, "BSTAR": 0.00085133469, "MEAN_MOTION_DOT": 4.868e-05, "MEAN_MOTION_DDOT": 0}, "tle": {"line1": "1 35628U 97051RA  25354.28189576  .00004868  00000+0  85133-3 0  9999", "line2": "2 35628  86.3562   5.7112 0009636 314.2717  45.7705 14.67680924865577"}}, "geometry": {"type": "Point", "coordinates": [3.110452249880432, -19.524825367822924]}}, {"type": "Feature", "properties": {"norad_id": 35631, "name": "IRIDIUM 33 DEB", "group": "iridium-33-debris", "lat": -11.808546478384994, "lon": -162.7724866519001, "alt_km": 742.3495943061835, "timestamp": "2025-12-23T05:02:12.415532+00:00", "meta": {"OBJECT_NAME": "IRIDIUM 33 DEB", "OBJECT_ID": "1997-051RD", "EPOCH": "2025-12-22T08:18:43.884000", "MEAN_MOTION": 14.47336088, "ECCENTRICITY": 0.00191901, "INCLINATION": 86.3657, "RA_OF_ASC_NODE": 16.838, "ARG_OF_PERICENTER": 89.5261, "MEAN_ANOMALY": 285.5305, "EPHEMERIS_TYPE": 0, "CLASSIFICATION_TYPE": "U", "NORAD_CAT_ID": 35631, "ELEMENT_SET_NO": 999, "REV_AT_EPOCH": 87336, "BSTAR": 0.00033639063, "MEAN_MOTION_DOT": 1.254e-05, "MEAN_MOTION_DDOT": 0}, "tle": {"line1": "1 35631U 97051RD  25356.34634125  .00001254  00000+0  33639-3 0  9997", "line2": "2 35631  86.3657  16.8380 0019190  89.5261 285.5305 14.47336088873361"}}, "geometry": {"type": "Point", "coordinates": [-162.7724866519001, -11.808546478384994]}}, {"type": "Feature", "properties": {"norad_id": 35680, "name": "IRIDIUM 33 DEB", "group": "iridium-33-debris", "lat": -71.5313992209209, "lon": -151.33457501637145, "alt_km": 721.4783641553549, "timestamp": "2025-12-23T05:02:12.415542+00:00", "meta": {"OBJECT_NAME": "IRIDIUM 33 DEB", "OBJECT_ID": "1997-051RJ", "EPOCH": "2025-12-21T07:58:47.284608", "MEAN_MOTION": 14.2104558, "ECCENTRICITY": 0.01505558, "INCLINATION": 86.1025, "RA_OF_ASC_NODE": 17.7185, "ARG_OF_PERICENTER": 250.9856, "MEAN_ANOMALY": 122.3959, "EPHEMERIS_TYPE": 0, "CLASSIFICATION_TYPE": "U", "NORAD_CAT_ID": 35680, "ELEMENT_SET_NO": 999, "REV_AT_EPOCH": 60823, "BSTAR": 0.0026505481, "MEAN_MOTION_DOT": 6.465e-05, "MEAN_MOTION_DDOT": 0}, "tle": {"line1": "1 35680U 97051RJ  25355.33249172  .00006465  00000+0  26505-2 0  9995", "line2": "2 35680  86.1025  17.7185 0150555 250.9856 122.3959 14.21045580608231"}}, "geometry": {"type": "Point", "coordinates": [-151.33457501637145, -71.5313992209209]}}]}